STARLINK-11684 [DTC]    
1 64240U 25119H   25360.50837189  .00223115  00000+0  16923-2 0  9997
2 64240  42.9993 290.3652 0000862 299.4619  60.6163 15.70892000 33737
STARLINK-11689 [DTC]    
1 64241U 25119J   25360.17983813  .00272020  00000+0  20351-2 0  9996
2 64241  42.9961 292.1913 0001284 266.0832  93.9889 15.71068980 33680
STARLINK-11690 [DTC]    
1 64242U 25119K   25360.23810270  .00169050  00000+0  12919-2 0  9999
2 64242  42.9981 291.7703 0002221 249.5930 110.4699 15.70884583 33691
STARLINK-11694 [DTC]    
1 64243U 25119L   25360.21168828  .00183776  00000+0  14003-2 0  9990
2 64243  42.9991 292.4514 0001833 270.2542  89.8116 15.70906301 33684
STARLINK-11710 [DTC]    
1 64244U 25119M   25359.81426199  .00332309  00000+0  24605-2 0  9990
2 64244  42.9988 294.6231 0002837 208.2884 151.7830 15.71134215 33620
STARLINK-11704 [DTC]    
1 64245U 25119N   25360.22748519  .00208190  00000+0  15803-2 0  9991
2 64245  43.0026 291.6813 0002655 262.5217  97.5349 15.70919618 33696
STARLINK-34203          
1 64246U 25119P   25360.28206999  .00025837  00000+0  94485-3 0  9998
2 64246  43.0017   1.5310 0001339 279.4475  80.6225 15.27589656 32959
STARLINK-33865          
1 64247U 25119Q   25360.00510370  .00029954  00000+0  10934-2 0  9990
2 64247  43.0017   2.8845 0000917 209.2377 150.8424 15.27587495 32871
STARLINK-34234          
1 64248U 25119R   25360.29234657  .00027270  00000+0  99724-3 0  9997
2 64248  43.0005   1.6028 0000549 281.2853  78.7937 15.27566178 32949
STARLINK-34256          
1 64249U 25119S   25360.40511818  .00025995  00000+0  94943-3 0  9998
2 64249  43.0025   0.7276 0000848 250.3397 109.7363 15.27628562 32965
STARLINK-34229          
1 64250U 25119T   25360.31033839  .00032253  00000+0  11766-2 0  9998
2 64250  43.0012   1.7442 0001022 256.7622 103.3116 15.27575343 32947
STARLINK-34224          
1 64251U 25119U   25359.42047796  .00032761  00000+0  11937-2 0  9990
2 64251  43.0033   6.2436 0001286 280.0929  79.9777 15.27608467 32817
STARLINK-34215          
1 64252U 25119V   25360.28849164  .00033799  00000+0  12314-2 0  9998
2 64252  43.0001   1.5756 0001141 258.4364 101.6360 15.27599213 32941
STARLINK-33893          
1 64253U 25119W   25360.30391265  .00022361  00000+0  81932-3 0  9992
2 64253  43.0008   1.6937 0001268 264.6157  95.4550 15.27592745 32944
STARLINK-34183          
1 64254U 25119X   25359.07184940  .00023744  00000+0  86954-3 0  9990
2 64254  43.0000   8.7827 0001337 256.5009 103.5694 15.27581442 32757
STARLINK-34211          
1 64255U 25119Y   25360.31804648  .00024940  00000+0  91225-3 0  9990
2 64255  43.0030   1.7936 0001810 261.3261  98.7386 15.27598667 32946
