[{"OBJECT_NAME":"STARLINK-11684 [DTC]","OBJECT_ID":"2025-119H","EPOCH":"2025-12-26T12:12:03.331296","MEAN_MOTION":15.70892,"ECCENTRICITY":8.625e-5,"INCLINATION":42.9993,"RA_OF_ASC_NODE":290.3652,"ARG_OF_PERICENTER":299.4619,"MEAN_ANOMALY":60.6163,"EPHEMERIS_TYPE":0,"CLASSIFICATION_TYPE":"U","NORAD_CAT_ID":64240,"ELEMENT_SET_NO":999,"REV_AT_EPOCH":3373,"BSTAR":0.0016923126,"MEAN_MOTION_DOT":0.00223115,"MEAN_MOTION_DDOT":0},{"OBJECT_NAME":"STARLINK-11689 [DTC]","OBJECT_ID":"2025-119J","EPOCH":"2025-12-26T04:18:58.014432","MEAN_MOTION":15.7106898,"ECCENTRICITY":0.00012842,"INCLINATION":42.9961,"RA_OF_ASC_NODE":292.1913,"ARG_OF_PERICENTER":266.0832,"MEAN_ANOMALY":93.9889,"EPHEMERIS_TYPE":0,"CLASSIFICATION_TYPE":"U","NORAD_CAT_ID":64241,"ELEMENT_SET_NO":999,"REV_AT_EPOCH":3368,"BSTAR":0.0020351297,"MEAN_MOTION_DOT":0.0027202,"MEAN_MOTION_DDOT":0},{"OBJECT_NAME":"STARLINK-11690 [DTC]","OBJECT_ID":"2025-119K","EPOCH":"2025-12-26T05:42:52.073280","MEAN_MOTION":15.70884583,"ECCENTRICITY":0.0002221,"INCLINATION":42.9981,"RA_OF_ASC_NODE":291.7703,"ARG_OF_PERICENTER":249.593,"MEAN_ANOMALY":110.4699,"EPHEMERIS_TYPE":0,"CLASSIFICATION_TYPE":"U","NORAD_CAT_ID":64242,"ELEMENT_SET_NO":999,"REV_AT_EPOCH":3369,"BSTAR":0.0012918571,"MEAN_MOTION_DOT":0.0016905,"MEAN_MOTION_DDOT":0},{"OBJECT_NAME":"STARLINK-11694 [DTC]","OBJECT_ID":"2025-119L","EPOCH":"2025-12-26T05:04:49.867392","MEAN_MOTION":15.70906301,"ECCENTRICITY":0.00018332,"INCLINATION":42.9991,"RA_OF_ASC_NODE":292.4514,"ARG_OF_PERICENTER":270.2542,"MEAN_ANOMALY":89.8116,"EPHEMERIS_TYPE":0,"CLASSIFICATION_TYPE":"U","NORAD_CAT_ID":64243,"ELEMENT_SET_NO":999,"REV_AT_EPOCH":3368,"BSTAR":0.0014003441,"MEAN_MOTION_DOT":0.00183776,"MEAN_MOTION_DDOT":0},{"OBJECT_NAME":"STARLINK-11710 [DTC]","OBJECT_ID":"2025-119M","EPOCH":"2025-12-25T19:32:32.235936","MEAN_MOTION":15.71134215,"ECCENTRICITY":0.00028377,"INCLINATION":42.9988,"RA_OF_ASC_NODE":294.6231,"ARG_OF_PERICENTER":208.2884,"MEAN_ANOMALY":151.783,"EPHEMERIS_TYPE":0,"CLASSIFICATION_TYPE":"U","NORAD_CAT_ID":64244,"ELEMENT_SET_NO":999,"REV_AT_EPOCH":3362,"BSTAR":0.0024604869,"MEAN_MOTION_DOT":0.00332309,"MEAN_MOTION_DDOT":0},{"OBJECT_NAME":"STARLINK-11704 [DTC]","OBJECT_ID":"2025-119N","EPOCH":"2025-12-26T05:27:34.720416","MEAN_MOTION":15.70919618,"ECCENTRICITY":0.00026552,"INCLINATION":43.0026,"RA_OF_ASC_NODE":291.6813,"ARG_OF_PERICENTER":262.5217,"MEAN_ANOMALY":97.5349,"EPHEMERIS_TYPE":0,"CLASSIFICATION_TYPE":"U","NORAD_CAT_ID":64245,"ELEMENT_SET_NO":999,"REV_AT_EPOCH":3369,"BSTAR":0.0015802851,"MEAN_MOTION_DOT":0.0020819,"MEAN_MOTION_DDOT":0},{"OBJECT_NAME":"STARLINK-34203","OBJECT_ID":"2025-119P","EPOCH":"2025-12-26T06:46:10.847136","MEAN_MOTION":15.27589656,"ECCENTRICITY":0.00013393,"INCLINATION":43.0017,"RA_OF_ASC_NODE":1.531,"ARG_OF_PERICENTER":279.4475,"MEAN_ANOMALY":80.6225,"EPHEMERIS_TYPE":0,"CLASSIFICATION_TYPE":"U","NORAD_CAT_ID":64246,"ELEMENT_SET_NO":999,"REV_AT_EPOCH":3295,"BSTAR":0.00094485306,"MEAN_MOTION_DOT":0.00025837,"MEAN_MOTION_DDOT":0},{"OBJECT_NAME":"STARLINK-33865","OBJECT_ID":"2025-119Q","EPOCH":"2025-12-26T00:07:20.959680","MEAN_MOTION":15.27587495,"ECCENTRICITY":9.177e-5,"INCLINATION":43.0017,"RA_OF_ASC_NODE":2.8845,"ARG_OF_PERICENTER":209.2377,"MEAN_ANOMALY":150.8424,"EPHEMERIS_TYPE":0,"CLASSIFICATION_TYPE":"U","NORAD_CAT_ID":64247,"ELEMENT_SET_NO":999,"REV_AT_EPOCH":3287,"BSTAR":0.0010933817,"MEAN_MOTION_DOT":0.00029954,"MEAN_MOTION_DDOT":0},{"OBJECT_NAME":"STARLINK-34234","OBJECT_ID":"2025-119R","EPOCH":"2025-12-26T07:00:58.743648","MEAN_MOTION":15.27566178,"ECCENTRICITY":5.497e-5,"INCLINATION":43.0005,"RA_OF_ASC_NODE":1.6028,"ARG_OF_PERICENTER":281.2853,"MEAN_ANOMALY":78.7937,"EPHEMERIS_TYPE":0,"CLASSIFICATION_TYPE":"U","NORAD_CAT_ID":64248,"ELEMENT_SET_NO":999,"REV_AT_EPOCH":3294,"BSTAR":0.00099723843,"MEAN_MOTION_DOT":0.0002727,"MEAN_MOTION_DDOT":0},{"OBJECT_NAME":"STARLINK-34256","OBJECT_ID":"2025-119S","EPOCH":"2025-12-26T09:43:22.210752","MEAN_MOTION":15.27628562,"ECCENTRICITY":8.481e-5,"INCLINATION":43.0025,"RA_OF_ASC_NODE":0.7276,"ARG_OF_PERICENTER":250.3397,"MEAN_ANOMALY":109.7363,"EPHEMERIS_TYPE":0,"CLASSIFICATION_TYPE":"U","NORAD_CAT_ID":64249,"ELEMENT_SET_NO":999,"REV_AT_EPOCH":3296,"BSTAR":0.00094943313,"MEAN_MOTION_DOT":0.00025995,"MEAN_MOTION_DDOT":0},{"OBJECT_NAME":"STARLINK-34229","OBJECT_ID":"2025-119T","EPOCH":"2025-12-26T07:26:53.236896","MEAN_MOTION":15.27575343,"ECCENTRICITY":0.00010229,"INCLINATION":43.0012,"RA_OF_ASC_NODE":1.7442,"ARG_OF_PERICENTER":256.7622,"MEAN_ANOMALY":103.3116,"EPHEMERIS_TYPE":0,"CLASSIFICATION_TYPE":"U","NORAD_CAT_ID":64250,"ELEMENT_SET_NO":999,"REV_AT_EPOCH":3294,"BSTAR":0.0011766175,"MEAN_MOTION_DOT":0.00032253,"MEAN_MOTION_DDOT":0},{"OBJECT_NAME":"STARLINK-34224","OBJECT_ID":"2025-119U","EPOCH":"2025-12-25T10:05:29.295744","MEAN_MOTION":15.27608467,"ECCENTRICITY":0.0001286,"INCLINATION":43.0033,"RA_OF_ASC_NODE":6.2436,"ARG_OF_PERICENTER":280.0929,"MEAN_ANOMALY":79.9777,"EPHEMERIS_TYPE":0,"CLASSIFICATION_TYPE":"U","NORAD_CAT_ID":64251,"ELEMENT_SET_NO":999,"REV_AT_EPOCH":3281,"BSTAR":0.0011937,"MEAN_MOTION_DOT":0.00032761,"MEAN_MOTION_DDOT":0},{"OBJECT_NAME":"STARLINK-34215","OBJECT_ID":"2025-119V","EPOCH":"2025-12-26T06:55:25.677696","MEAN_MOTION":15.27599213,"ECCENTRICITY":0.00011418,"INCLINATION":43.0001,"RA_OF_ASC_NODE":1.5756,"ARG_OF_PERICENTER":258.4364,"MEAN_ANOMALY":101.636,"EPHEMERIS_TYPE":0,"CLASSIFICATION_TYPE":"U","NORAD_CAT_ID":64252,"ELEMENT_SET_NO":999,"REV_AT_EPOCH":3294,"BSTAR":0.0012314192,"MEAN_MOTION_DOT":0.00033799,"MEAN_MOTION_DDOT":0},{"OBJECT_NAME":"STARLINK-33893","OBJECT_ID":"2025-119W","EPOCH":"2025-12-26T07:17:38.052960","MEAN_MOTION":15.27592745,"ECCENTRICITY":0.0001268,"INCLINATION":43.0008,"RA_OF_ASC_NODE":1.6937,"ARG_OF_PERICENTER":264.6157,"MEAN_ANOMALY":95.455,"EPHEMERIS_TYPE":0,"CLASSIFICATION_TYPE":"U","NORAD_CAT_ID":64253,"ELEMENT_SET_NO":999,"REV_AT_EPOCH":3294,"BSTAR":0.00081932094,"MEAN_MOTION_DOT":0.00022361,"MEAN_MOTION_DDOT":0},{"OBJECT_NAME":"STARLINK-34183","OBJECT_ID":"2025-119X","EPOCH":"2025-12-25T01:43:27.788160","MEAN_MOTION":15.27581442,"ECCENTRICITY":0.00013377,"INCLINATION":43,"RA_OF_ASC_NODE":8.7827,"ARG_OF_PERICENTER":256.5009,"MEAN_ANOMALY":103.5694,"EPHEMERIS_TYPE":0,"CLASSIFICATION_TYPE":"U","NORAD_CAT_ID":64254,"ELEMENT_SET_NO":999,"REV_AT_EPOCH":3275,"BSTAR":0.00086953854,"MEAN_MOTION_DOT":0.00023744,"MEAN_MOTION_DDOT":0},{"OBJECT_NAME":"STARLINK-34211","OBJECT_ID":"2025-119Y","EPOCH":"2025-12-26T07:37:59.215872","MEAN_MOTION":15.27598667,"ECCENTRICITY":0.000181,"INCLINATION":43.003,"RA_OF_ASC_NODE":1.7936,"ARG_OF_PERICENTER":261.3261,"MEAN_ANOMALY":98.7386,"EPHEMERIS_TYPE":0,"CLASSIFICATION_TYPE":"U","NORAD_CAT_ID":64255,"ELEMENT_SET_NO":999,"REV_AT_EPOCH":3294,"BSTAR":0.00091225031,"MEAN_MOTION_DOT":0.0002494,"MEAN_MOTION_DDOT":0}]
